{
    "links": {
        "self": "http://www.neowsapp.com/rest/v1/neo/3745500?api_key=iIulBulltgU6a56xZRHN4H3l9WmuAYTsLGpBGhQ2"
    },
    "id": "3745500",
    "neo_reference_id": "3745500",
    "name": "(2016 ED28)",
    "designation": "2016 ED28",
    "nasa_jpl_url": "http://ssd.jpl.nasa.gov/sbdb.cgi?sstr=3745500",
    "absolute_magnitude_h": 22.8,
    "estimated_diameter": {
        "kilometers": {
            "estimated_diameter_min": 0.0732073989,
            "estimated_diameter_max": 0.1636967205
        },
        "meters": {
            "estimated_diameter_min": 73.2073989347,
            "estimated_diameter_max": 163.696720474
        },
        "miles": {
            "estimated_diameter_min": 0.0454889547,
            "estimated_diameter_max": 0.1017163949
        },
        "feet": {
            "estimated_diameter_min": 240.181762721,
            "estimated_diameter_max": 537.0627483999
        }
    },
    "is_potentially_hazardous_asteroid": false,
    "close_approach_data": [
        {
            "close_approach_date": "2016-03-26",
            "close_approach_date_full": "2016-Mar-26 12:15",
            "epoch_date_close_approach": 1458994500000,
            "relative_velocity": {
                "kilometers_per_second": "12.561030152",
                "kilometers_per_hour": "45219.7085472864",
                "miles_per_hour": "28097.7683470625"
            },
            "miss_distance": {
                "astronomical": "0.0863658096",
                "lunar": "33.5962999344",
                "kilometers": "12920141.156985552",
                "miles": "8028203.4422105376"
            },
            "orbiting_body": "Earth"
        }
    ],
    "orbital_data": {
        "orbit_id": "14",
        "orbit_determination_date": "2018-02-10 07:07:40",
        "first_observation_date": "2016-03-04",
        "last_observation_date": "2016-04-04",
        "data_arc_in_days": 31,
        "observations_used": 61,
        "orbit_uncertainty": "7",
        "minimum_orbit_intersection": ".0386357",
        "jupiter_tisserand_invariant": "3.232",
        "epoch_osculation": "2459000.5",
        "eccentricity": ".5915118325984754",
        "semi_major_axis": "2.426150775653463",
        "inclination": "9.074442750596139",
        "ascending_node_longitude": "185.2305999642411",
        "orbital_period": "1380.305147071842",
        "perihelion_distance": ".9910538841864706",
        "perihelion_argument": "35.26645272638727",
        "aphelion_distance": "3.861247667120455",
        "perihelion_time": "2458879.839685143636",
        "mean_anomaly": "31.46964527404623",
        "mean_motion": ".2608118942131734",
        "equinox": "J2000",
        "orbit_class": {
            "orbit_class_type": "APO",
            "orbit_class_description": "Near-Earth asteroid orbits which cross the Earth’s orbit similar to that of 1862 Apollo",
            "orbit_class_range": "a (semi-major axis) > 1.0 AU; q (perihelion) < 1.017 AU"
        }
    },
    "is_sentry_object": false
}